RADCAL                  
1 22698U 93041A   09078.95566314  .00000062  00000-0  21533-4 0  2873
2 22698  89.5317  31.9274 0087380 248.5332 110.6511 14.22810884816582
STRV 1A                 
1 23125U 94034B   09078.30456217  .00002832  00000-0  52241-3 0  3946
2 23125   7.2262 134.5704 6851268 196.8029 118.4568  2.84835593136885
STRV 1B                 
1 23126U 94034C   09079.10464466  .00005905  00000-0  79306-3 0  3935
2 23126   7.2149  82.8845 6813731 299.3202   9.8423  2.90518071139057
HELIOS 1A               
1 23605U 95033A   09079.04755089  .00000213  00000-0  49848-4 0  9532
2 23605  98.1163  17.4222 0001421  29.0033 331.1261 14.63842738732138
REX 2                   
1 23814U 96014A   09078.27825062  .00000010  00000-0 -87791-7 0  6341
2 23814  90.1519 270.6552 0020131 246.4019 113.5061 14.23861429676753
COSMOS 2346             
1 24953U 97052A   09079.25130892  .00000022  00000-0  65511-5 0  4274
2 24953  82.9226  22.2766 0040929  23.2386 337.0623 13.79433267578365
ARGOS                   
1 25634U 99008A   09078.69424752  .00000113  00000-0  76509-4 0  6734
2 25634  99.0223 114.2289 0009857 199.0063 161.0727 14.18906201521353
HELIOS 1B               
1 25977U 99064A   09079.04994015  .00000152  00000-0  29011-4 0   935
2 25977  98.3412  76.6833 0000635 209.6238 150.4983 14.77671247498766
MTI                     
1 26102U 00014A   09079.11787688  .00000499  00000-0  32699-4 0  4414
2 26102  97.2097 248.2414 0021235  62.3076   1.0276 15.11697431495944
STRV 1C                 
1 26610U 00072C   09078.54625398 -.00000144  00000-0  00000+0 0  9001
2 26610   6.8889 314.0234 7339345   8.5927 359.2422  2.03459956 61993
OFEQ 5                  
1 27434U 02025A   09079.23756944  .00001075  00000-0  41188-4 0   275
2 27434 143.4653 113.0002 0026989   3.7924 220.5816 15.05521294379876
HELIOS-2A               
1 28492U 04049A   09079.08077394  .00000034  00000-0  15411-4 0  7705
2 28492  98.1192  17.5584 0000928  68.0678 292.0623 14.63842376227101
ESSAIM-1                
1 28494U 04049C   09079.36173445  .00000042  00000-0  15433-4 0  8289
2 28494  98.2453  37.3312 0003473 139.5157 220.6300 14.70164998228034
ESSAIM-2                
1 28495U 04049D   09079.08904885  .00000118  00000-0  28045-4 0  8590
2 28495  98.2461  37.1553 0004484 139.7701 220.3841 14.70164681227999
ESSAIM-3                
1 28496U 04049E   09079.08964675  .00000138  00000-0  31533-4 0  7917
2 28496  98.2589  41.3039 0009254 161.6550 198.5006 14.70165304228176
ESSAIM-4                
1 28497U 04049F   09079.08917236  .00000103  00000-0  25617-4 0  8457
2 28497  98.2589  41.3424 0012465 159.8164 200.3543 14.70165791228171
SAR-LUPE 1              
1 29658U 06060A   09079.21128887  .00000828  00000-0  34957-4 0  5204
2 29658  98.1201 171.0179 0020373 205.9411 236.0076 15.26437072125353
MIDSTAR-1               
1 30773U 07006B   09078.93708301 -.00000303  00000-0  00000+0 0  5787
2 30773  46.0253 113.2336 0008727  70.9946 289.1892 15.23683517113128
CFESAT                  
1 30777U 07006F   09077.94773412  .00000340  00000-0  28029-4 0  5445
2 30777  35.4336 290.3046 0002644 202.7062 157.3538 15.02695676111472
NFIRE                   
1 31140U 07014A   09078.24058549  .00004757  00000-0  64931-4 0  7596
2 31140  48.2377 331.5673 0053663 301.0549  58.5134 15.57853049108209
OFEQ 7                  
1 31601U 07025A   09079.25265505  .00001949  00000-0  64646-4 0   174
2 31601 141.7498 288.4472 0071301 185.1165 307.6890 15.19351644 98897
SAR-LUPE 2              
1 31797U 07030A   09079.25357639  .00000780  00000-0  33199-4 0  9198
2 31797  98.1874 240.0220 0014719 152.6099 199.8831 15.26454270 95571
SAR-LUPE 3              
1 32283U 07053A   09079.22245118  .00000509  00000-0  22875-4 0  5496
2 32283  98.1372 302.4370 0009707 271.2343 228.1743 15.26399394 77084
SAR-LUPE 4              
1 32750U 08014A   09079.19438780  .00000779  00000-0  33049-4 0   880
2 32750  98.1242 172.1157 0022670  23.2279  32.7929 15.26426474 54531
SAR-LUPE 5              
1 33244U 08036A   09079.20918231 -.00000179  00000-0 -34705-5 0  7388
2 33244  98.1316 300.9310 0022662  65.6808  74.2674 15.26389899 36776
SPIRALE A               
1 33751U 09008C   09078.01759923 -.00000140  00000-0  10000-3 0   414
2 33751   1.9162 287.0662 7150122 204.1997  89.8269  2.25831883   777
SPIRALE B               
1 33752U 09008D   09077.15750329 -.00000050  00000-0  17223-2 0   301
2 33752   1.9243 287.3125 7147110 203.5028  92.8071  2.25834261   752
